FLOCK 4G-5              
1 62663U 25009BG  26068.45638436  .00011278  00000+0  40688-3 0  9997
2 62663  97.4058 151.2478 0002094 314.5072  45.5996 15.28679529 63699
STARLINK-34058          
1 63818U 25092Q   26068.33033164  .00033672  00000+0  12273-2 0  9996
2 63818  43.0010 174.2377 0000346 272.6613  87.4199 15.27587386 48616
